SES-22                  
1 52933U 22071A   24111.72661076  .00000091  00000+0  00000+0 0  9996
2 52933   0.0417  67.4974 0001269 320.7205 307.6539  1.00273941  6646
WFOV (USA 332)          
1 52940U 22073A   24111.86171963 -.00000357  00000+0  00000+0 0  9998
2 52940   1.6775  88.8903 0002373 254.9220 295.0927  1.00268748  6470
TIANLIAN 2-03           
1 53100U 22078A   24111.16380163  .00000070  00000+0  00000+0 0  9990
2 53100   1.3765 279.0271 0002526 115.2361 243.9704  1.00272885  6654
SBIRS GEO-6 (USA 336)   
1 53355U 22092A   24111.99584713 -.00000296  00000+0  00000+0 0  9997
2 53355   4.6937 311.0714 0003914  64.0964 331.8884  1.00272805  6337
EUTELSAT KONNECT VHTS   
1 53765U 22110A   24112.08382701  .00000022  00000+0  00000+0 0  9993
2 53765   0.0554  84.4989 0002834 290.4703 227.5535  1.00271948  5899
CHINASAT 1E (ZX 1E)     
1 53813U 22112A   24111.84711390 -.00000146  00000+0  00000+0 0  9990
2 53813   0.0385 326.2789 0001728  55.5001 213.9580  1.00274466  5945
SES-20                  
1 53960U 22123A   24111.58984382 -.00000098  00000+0  00000+0 0  9995
2 53960   0.0300 125.1821 0001773 301.7234 251.5042  1.00271150  5647
SES-21                  
1 53961U 22123B   24112.08539334  .00000073  00000+0  00000+0 0  9997
2 53961   0.0031 327.9765 0001251  44.7197  96.7704  1.00273196  5658
GALAXY 33 (G-33)        
1 54026U 22128A   24111.72704588  .00000082  00000+0  00000+0 0  9990
2 54026   0.0130 222.0416 0002038 172.2369 303.7529  1.00270395  5857
GALAXY 34 (G-34)        
1 54027U 22128B   24112.08574144  .00000063  00000+0  00000+0 0  9993
2 54027   0.0116 214.5613 0001444 179.7437  77.2756  1.00269560  5885
ANGOSAT 2               
1 54033U 22131A   24111.61490633  .00000138  00000+0  00000+0 0  9995
2 54033   0.0129 199.6942 0001463 253.8936 359.9508  1.00272755  5563
EUTELSAT HOTBIRD 13F    
1 54048U 22134A   24112.11402378  .00000090  00000+0  00000+0 0  9996
2 54048   0.0625 288.4826 0001711  50.1853 285.0480  1.00262137  5549
LDPE-2                  
1 54219U 22144A   24111.81241505 -.00000280  00000+0  00000+0 0  9998
2 54219   3.6875  65.1415 0001094  17.5293 355.4912  1.00629025  3912
EUTELSAT HOTBIRD 13G    
1 54225U 22146A   24111.75602441  .00000091  00000+0  00000+0 0  9999
2 54225   0.0473 245.0268 0001647 314.3487 295.1238  1.00273446  5337
CHINASAT 19 (ZX 19)     
1 54230U 22148A   24111.86664477 -.00000076  00000+0  00000+0 0  9990
2 54230   0.0164 251.4286 0004372  18.0975  55.2507  1.00272691  5479
GALAXY 31 (G-31)        
1 54243U 22153A   24112.08739486  .00000018  00000+0  00000+0 0  9993
2 54243   0.0150 227.6102 0001394 162.1748  90.3226  1.00272527  5263
GALAXY 32 (G-32)        
1 54244U 22153B   24111.80684560 -.00000170  00000+0  00000+0 0  9995
2 54244   0.0080 148.4730 0002898 226.9441  33.4123  1.00271756  5247
EUTELSAT 10B            
1 54259U 22157A   24112.08382701  .00000073  00000+0  00000+0 0  9999
2 54259   0.0569  84.5345 0001979 228.1089 297.1709  1.00270365  5152
GALAXY 35 (G-35)        
1 54741U 22170A   24112.02134473 -.00000158  00000+0  00000+0 0  9990
2 54741   0.0529  74.1674 0001357 317.4509  92.5408  1.00271779  5011
GALAXY 36 (G-36)        
1 54742U 22170B   24111.59262854 -.00000182  00000+0  00000+0 0  9994
2 54742   0.0322  99.9037 0003110 328.0667 265.5397  1.00272141  4879
METEOSAT-12 (MTG-I1)    
1 54743U 22170C   24111.87757753 -.00000003  00000+0  00000+0 0  9995
2 54743   0.4325  26.8462 0001079  17.7762 120.3040  1.00273815  5084
SHIJIAN-23 (SJ-23)      
1 55131U 23002A   24111.84711388 -.00000103  00000+0  00000+0 0  9994
2 55131   1.6843  88.4113 0001594 324.5147 183.3961  1.00065167  4617
USA 340                 
1 55138U 22144E   24108.58849271 -.00000337  00000+0  00000+0 0  9996
2 55138   3.6468  65.9622 0001168  26.3693 103.1969  0.99559794  3858
USA 342                 
1 55263U 23008A   24109.28660562  .00000133  00000+0  00000+0 0  9990
2 55263   0.0065  95.8926 0000380  65.5471 172.6494  1.00273158  4602
LDPE-3A                 
1 55264U 23008B   24111.74009927 -.00000278  00000+0  00000+0 0  9998
2 55264   1.0987  87.9958 0001028  16.9146 303.6229  1.00634574  3911
ELEKTRO-L 4             
1 55506U 23016A   24110.96018850 -.00000058  00000+0  00000+0 0  9990
2 55506   0.1087  91.1624 0001395 215.7485  53.0736  1.00272246  4420
AMAZONAS NEXUS          
1 55508U 23017A   24109.73676897 -.00000286  00000+0  00000+0 0  9990
2 55508   0.0183  46.5759 0005501 345.2281  19.7569  1.00266651  4344
CHINASAT 26 (ZX 26)     
1 55686U 23023A   24111.86276495 -.00000350  00000+0  00000+0 0  9993
2 55686   0.0704  73.4765 0003260 354.2102 217.4617  1.00273616  4348
LUCH-5X (OLYMP-K 2)     
1 55841U 23031A   24111.87757753  .00000036  00000+0  00000+0 0  9997
2 55841   0.0431   1.0364 0001186  71.9993  97.0774  1.00272246  4058
GAOFEN-13 02            
1 55912U 23036A   24111.83938425 -.00000234  00000+0  00000+0 0  9995
2 55912   2.1480 304.6135 0003550 317.9486  35.5885  1.00267254  4197
SES-18                  
1 55970U 23038A   24111.56962338 -.00000099  00000+0  00000+0 0  9990
2 55970   0.0157 251.5773 0001564  80.2955 339.2238  1.00272148  4218
SES-19                  
1 55971U 23038B   24111.64139215  .00000091  00000+0  00000+0 0  9991
2 55971   0.0144 243.9660 0001845 150.0456 271.1750  1.00270900  4171
INTELSAT 40E (IS-40E)   
1 56174U 23052A   24112.02177985 -.00000170  00000+0  00000+0 0  9991
2 56174   0.0070 226.7052 0001194 208.8556  50.8626  1.00272612  3949
VIASAT-3                
1 56370U 23060A   24111.95059538 -.00000181  00000+0  00000+0 0  9994
2 56370   0.0133 211.1883 0000372 170.8100  80.7657  1.00269513  3545
ARCTURUS                
1 56371U 23060B   24111.81160455 -.00000112  00000+0  00000+0 0  9995
2 56371   0.7375  89.0231 0000589  52.6317  77.8586  1.00271326  3562
GS-1                    
1 56372U 23060C   24111.71505042 -.00000318  00000+0  00000+0 0  9998
2 56372   0.6865  88.0390 0004068 282.6659 214.2553  0.99762548   129
BEIDOU-3 G4             
1 56564U 23066A   24111.85687206 -.00000111  00000+0  00000+0 0  9996
2 56564   2.2670 288.2227 0003971 188.6744 201.0563  1.00273051  3508
ARABSAT-7B (BADR-8)     
1 56757U 23075A   24112.11654743  .00000149  00000+0  00000+0 0  9990
2 56757   0.0761  30.2015 0005496 337.1485 270.2819  1.00270996  3244
IRNSS-1J (NVS-01)       
1 56759U 23076A   24111.92240007 -.00000338  00000+0  00000+0 0  9996
2 56759   4.1453 267.4518 0005779  23.9300  19.7355  1.00273706  3312
NUSANTARA TIGA (SATRIA) 
1 57045U 23086A   24111.56279411 -.00000232  00000+0  00000+0 0  9990
2 57045   0.0443 316.2948 0005005  21.5233 219.9132  1.00270984  1866
H2SAT (HEINRICH HERTZ)  
1 57213U 23093A   24112.11150012  .00000006  00000+0  00000+0 0  9990
2 57213   0.0173 208.5251 0001210 327.0763  74.7059  1.00273594  2988
SYRACUSE 4B             
1 57214U 23093B   24112.08938436 -.00000049  00000+0  00000+0 0  9999
2 57214   0.0108 222.2943 0000097 127.8428 245.1414  1.00272371  3728
JUPITER 3 (ECHOSTAR 24) 
1 57479U 23108A   24110.68593537 -.00000151  00000+0  00000+0 0  9996
2 57479   0.0146 249.3011 0001232 145.4799 325.2233  1.00271474  2741
GALAXY 37 (G-37)        
1 57493U 23112A   24112.08617655  .00000052  00000+0  00000+0 0  9990
2 57493   0.0170 335.6452 0002058  54.0542  83.9737  1.00271971  2626
LUDI TANCE-4 01A        
1 57624U 23120A   24111.77125334 -.00000194  00000+0  00000+0 0  9996
2 57624  15.8067 213.1065 0003041 164.1513 199.3724  1.00275587  2653
TJS-10                  
1 58204U 23169A   24111.89090632  .00000008  00000+0  00000+0 0  9992
2 58204   0.5018  88.5856 0007344 274.3079 340.4933  1.00272022  1648
CHINASAT 6E (ZX 6E)     
1 58253U 23172A   24111.85922911 -.00000358  00000+0  00000+0 0  9999
2 58253   0.0143 227.2982 0003848 211.0412 195.8929  1.00271368  1764
YAOGAN-41               
1 58582U 23197A   24111.86305713 -.00000367  00000+0  00000+0 0  9997
2 58582   4.7250 307.7272 0017188 166.2305 169.4400  1.00269881  1420
INSAT-3DS               
1 58990U 24033A   24111.84155609 -.00000162  00000+0  00000+0 0  9998
2 58990   0.1449  86.9982 0011534 359.4309 148.9371  1.00272866   397
MERAH PUTIH 2           
1 58995U 24035A   24112.18026615 -.00000353  00000+0  00000+0 0  9999
2 58995   0.0190 230.8742 0001646 154.7013   2.0205  1.00268881   735
TJS-11                  
1 59020U 24037A   24111.88202902 -.00000374  00000+0  00000+0 0  9995
2 59020   5.4307 321.1960 0003673 142.2839 183.7772  1.00271539   684
HULIANWAN GAOGUI-01 (H*)
1 59069U 24040A   24111.47372589  .00000158  00000+0  00000+0 0  9995
2 59069   0.0183  65.5304 0003799 340.6086   7.1189  1.00273485   377
STARLETTE               
1 07646U 75010A   24111.81928246 -.00000123  00000+0  15945-4 0  9999
2 07646  49.8256 332.4435 0205708 341.9689  17.3984 13.82326954485625
LAGEOS 1                
1 08820U 76039A   24111.44925844  .00000017  00000+0  00000+0 0  9998
2 08820 109.8453 269.4897 0044320 111.3073 312.9059  6.38664892862832
AJISAI (EGS)            
1 16908U 86061A   24111.87870583 -.00000098  00000+0 -67383-5 0  9990
2 16908  50.0110  48.3277 0011362 336.9074  69.1881 12.44504972382351
COSMOS 1989 (ETALON 1)  
1 19751U 89001C   24111.78430674  .00000060  00000+0  00000+0 0  9993
2 19751  64.5309  99.2121 0023906 215.9053 327.6489  2.13156266274588
COSMOS 2024 (ETALON 2)  
1 20026U 89039C   24111.29622191 -.00000047  00000+0  00000+0 0  9990
2 20026  65.3606 337.5345 0019279 217.3991 334.2927  2.13204551271708
LAGEOS 2                
1 22195U 92070B   24111.87953324 -.00000009  00000+0  00000+0 0  9995
2 22195  52.6748  44.1914 0137599 202.6026 193.4104  6.47293468744453
STELLA                  
1 22824U 93061B   24111.90165715  .00000011  00000+0  23079-4 0  9996
2 22824  98.8847 157.2764 0006552  14.4388 107.9761 14.27421510592455
